0 DELTA 1 DEB
1 19054U 77065FX  13281.40986731  .00008006  00000-0  30569-2 0  8322
2 19054 028.8298 343.5252 0295840 341.0517 110.7814 14.08132890428047
0 DELTA 1 DEB
1 19054U 77065FX  13282.47873240  .00013747  00000-0  52672-2 0  8338
2 19054 028.8296 337.5247 0295908 350.7437 129.2271 14.08170339428193
0 DELTA 1 DEB
1 19054U 77065FX  13283.39716385  .00012128  00000-0  46390-2 0  8349
2 19054 028.8296 332.3700 0296178 359.0562 105.1798 14.08182270428320
0 DELTA 1 DEB
1 19054U 77065FX  13286.45287573  .00008457  00000-0  32202-2 0  8360
2 19054 028.8284 315.2132 0296442 026.7482 116.3360 14.08230684428758
0 DELTA 1 DEB
1 19054U 77065FX  13288.13531723  .00014222  00000-0  54302-2 0  8379
2 19054 028.8280 305.7668 0296598 041.9931 005.8296 14.08261059428998
0 DELTA 1 DEB
1 19054U 77065FX  13289.35419420  .00010117  00000-0  38513-2 0  8389
2 19054 028.8277 298.9221 0296715 053.0228 065.3239 14.08283075429166
0 DELTA 1 DEB
1 19054U 77065FX  13291.19000948  .00008526  00000-0  32376-2 0  8398
2 19054 028.8275 288.6127 0296805 069.6335 012.7603 14.08313533429420
0 DELTA 1 DEB
1 19054U 77065FX  13292.41096638  .00007594  00000-0  28784-2 0  8409
2 19054 028.8276 281.7558 0296838 080.6877 083.0131 14.08330196429592
0 DELTA 1 DEB
1 19054U 77065FX  13294.16903652  .00008105  00000-0  30723-2 0  8412
2 19054 028.8276 271.8833 0296876 096.5977 356.5672 14.08352657429849
0 DELTA 1 DEB
1 19054U 77065FX  13295.23738130  .00008509  00000-0  32256-2 0  8420
2 19054 028.8277 265.8836 0296873 106.2629 013.2287 14.08365803429998
